[{"OBJECT_NAME":"SMAP","OBJECT_ID":"2015-003A","EPOCH":"2026-03-09T22:25:54.867648","MEAN_MOTION":14.63339546,"ECCENTRICITY":0.00014204,"INCLINATION":98.1313,"RA_OF_ASC_NODE":77.4198,"ARG_OF_PERICENTER":111.7396,"MEAN_ANOMALY":248.3957,"EPHEMERIS_TYPE":0,"CLASSIFICATION_TYPE":"U","NORAD_CAT_ID":40376,"ELEMENT_SET_NO":999,"REV_AT_EPOCH":59310,"BSTAR":0.00014641179,"MEAN_MOTION_DOT":7.09e-6,"MEAN_MOTION_DDOT":0},{"OBJECT_NAME":"SL-8 DEB","OBJECT_ID":"1990-004D","EPOCH":"2026-03-09T22:48:54.387072","MEAN_MOTION":14.64576377,"ECCENTRICITY":0.00117253,"INCLINATION":74.024,"RA_OF_ASC_NODE":139.0631,"ARG_OF_PERICENTER":171.5908,"MEAN_ANOMALY":242.6719,"EPHEMERIS_TYPE":0,"CLASSIFICATION_TYPE":"U","NORAD_CAT_ID":20435,"ELEMENT_SET_NO":999,"REV_AT_EPOCH":90789,"BSTAR":0.0004954551,"MEAN_MOTION_DOT":2.603e-5,"MEAN_MOTION_DDOT":0}]
